FLOCK 4G-15             
1 62678U 25009BX  26068.71779869  .00012647  00000+0  47575-3 0  9991
2 62678  97.4054 151.1927 0003699 316.8208  43.2740 15.27266411121358
STARLINK-34056          
1 63841U 25093F   26068.38837098  .00030850  00000+0  11262-2 0  9998
2 63841  42.9951  79.8164 0000494 239.5372 120.5431 15.27569784 47705
